#cP2022 10  8  0  0  0.00000000      96 ORBIT IGb14 HLM  IGS
## 2230 518400.00000000   900.00000000 59860 0.0000000000000
+   32   G01G02G03G04G05G06G07G08G09G10G11G12G13G14G15G16G17
+        G18G19G20G21G22G23G24G25G26G27G28G29G30G31G32  0  0
+          0  0  0  0  0  0  0  0  0  0  0  0  0  0  0  0  0
+          0  0  0  0  0  0  0  0  0  0  0  0  0  0  0  0  0
+          0  0  0  0  0  0  0  0  0  0  0  0  0  0  0  0  0
++         2  2  2  2  2  2  2  2  2  2  3  2  2  2  2  2  2
++         3  2  2  2  2  2  3  2  2  2  2  2  2  2  2  0  0
++         0  0  0  0  0  0  0  0  0  0  0  0  0  0  0  0  0
++         0  0  0  0  0  0  0  0  0  0  0  0  0  0  0  0  0
++         0  0  0  0  0  0  0  0  0  0  0  0  0  0  0  0  0
%c G  cc GPS ccc cccc cccc cccc cccc ccccc ccccc ccccc ccccc
%c cc cc ccc ccc cccc cccc cccc cccc ccccc ccccc ccccc ccccc
%f  1.2500000  1.025000000  0.00000000000  0.000000000000000
%f  0.0000000  0.000000000  0.00000000000  0.000000000000000
%i    0    0    0    0      0      0      0      0         0
%i    0    0    0    0      0      0      0      0         0
/* RAPID ORBIT COMBINATION FROM WEIGHTED AVERAGE OF:        
/* cod emr esa gfz jpl ngs sio usn whu                      
/* REFERENCED TO IGS TIME (IGST) AND TO WEIGHTED MEAN POLE: 
/* PCV:IGS14_2223 OL/AL:FES2004  NONE     Y  ORB:CMB CLK:CMB
*  2022 10  8 15 45  0.00000000
PG01 -12990.528534  21985.149777  -6930.791221    270.816207  4  6  6  93       
PG02  13708.352999 -22753.148748   2958.060731   -643.170278 10 10  5  64       
PG03 -10053.999580  12755.515010 -21119.332637   -362.118331  2  7  7  90       
PG04  -3159.317142  22205.968339 -14146.552775   -106.792672  7  8  7  96       
PG05  20853.258765  -7479.317577  14562.685801    -99.627722  4  9  5  76       
PG06  16229.751787   2136.939830 -20869.545231    485.254186  5  6  5 111       
PG07    578.779634  19470.603704  18251.130719    300.677230  5  5  6  82       
PG08  -9549.556674  14219.883260  20160.186550    -87.959517  5  5  3  75       
PG09   6619.667226  25367.043191  -4201.490727   -285.939246  6  4  7 102       
PG10 -21279.147294 -11556.061098  11419.540008     -6.654876  5  6  5  98       
PG11  20955.452747  -8016.867135 -14183.594549    -23.649123  8  9  8 114       
PG12  11123.984611 -12176.465176 -21064.757911   -289.883570  3  7  5 102       
PG13  14020.005825  -5575.882900  21675.860066    402.280058  6  7  5  94       
PG14  19361.558173  13283.161769  12530.328368    -97.038681  6  7  4 105       
PG15   8095.946014 -15634.811239  19362.562980    -22.585594  7  8  4 105       
PG16 -24807.171474    306.017550   9818.630349   -525.893648  5  7  4  95       
PG17  12656.275271  21277.823157  -9089.497729    666.795387  6  3  5  85       
PG18   -882.377410 -18573.708353  18906.604800     21.746654  7  6  8 105       
PG19  15534.026746  12585.597804 -17850.364504    221.108835  6  5  5  95       
PG20  26350.345126  -1004.599305   1860.262282    480.020613  5  7  6  71       
PG21 -17045.549616  19589.156811   3718.376997    158.328950  6  7  7  91       
PG22 -16005.097285  -9702.638104 -18495.982702    342.000548  6  5  4 107       
PG23 -11986.064685 -14678.694786  18652.879276     -0.860632  5  6  4  82       
PG24  13878.068563 -22303.677671  -2101.371012    107.427680  9 12 10  84       
PG25  -2258.606177 -15826.292385 -21534.640987    380.280876  5  8  6 117       
PG26 -26510.928523  -3446.135840   -535.987526    231.682687  5  9  6  65       
PG27 -15205.883841   1373.024876  21553.932624    201.212825  6  4     81       
PG28  24066.108442  10032.886129   4804.767860    331.399388  4  4  7  82       
PG29  -3569.756706 -25761.145467  -5211.062091   -558.039694  9  7  7 103       
PG30  10729.990325  11666.741191  21390.815271   -537.235501  3  5  6  96       
PG31 -17637.572838  -1452.179323 -20083.872987   -196.102563  6  7  5  90       
PG32 -15428.606974 -18376.509770 -11452.033871   -257.095130  6  7  6  86       
*  2022 10  8 16  0  0.00000000
PG01 -13515.020443  22331.224253  -4091.486484    270.810635  3  6  6  84       
PG02  13951.214145 -22718.279060    107.310335   -643.168918  9 10  6  23       
PG03 -12351.370765  12348.794621 -20102.934379   -362.122439  2  7  7  89       
PG04  -3926.342203  20633.216527 -16196.328056   -106.787346  6  8  6 105       
PG05  22387.004854  -7132.596355  12324.832089    -99.629075  3  9  5  99       
PG06  14747.554587   4073.417947 -21657.651846    485.264159  5  5  4 116       
PG07   -768.884631  20874.282757  16530.898586    300.673806  5  5  6 107       
PG08 -10571.126162  12074.336416  21060.355239    -87.961290  5  5  3  76       
PG09   6129.090412  24890.483015  -6951.856176   -285.934654  6  4  6 107       
PG10 -19864.851111 -11511.648127  13771.484631     -6.655857  4  6  5 113       
PG11  19943.058317  -6588.973189 -16233.443282    -23.652767  8  8  7 118       
PG12  13353.281114 -11609.374976 -20043.239349   -289.887545  2  7  5 107       
PG13  14645.728340  -3134.054818  21768.188676    402.287934  6  6  5 101       
PG14  17791.943091  13217.757597  14724.788244    -97.035419  5  6  5 112       
PG15   9376.984673 -13632.136734  20282.886422    -22.582905  7  8  4 113       
PG16 -25732.938975   -108.420720   7201.780885   -525.894238  4  8  4 104       
PG17  12753.487477  22235.218047  -6384.866143    666.799092  6  4  5  96       
PG18    530.598107 -20096.491788  17281.324060     21.734731  6  7  8 102       
PG19  15932.745942  14430.413785 -16003.659091    221.113565  6  4  6  97       
PG20  26406.687581   -686.630935   -976.173532    480.017858  5  7  6 103       
PG21 -17001.383338  18982.972536   6537.495916    158.328150  5  5  7  89       
PG22 -16481.563419 -11746.481749 -16872.961474    342.007002  6  5  4 115       
PG23  -9781.767501 -14529.858704  19994.574496     -0.860915  5  6  4 108       
PG24  14205.832081 -22142.363341    724.544378    107.414848  8 11 10 143       
PG25    142.741769 -15523.344328 -21850.774083    380.284445  5  7  5 121       
PG26 -26277.793111  -3727.104745  -3311.319245    231.683907  5  9  6  65       
PG27 -16097.548010   -930.945129  20962.540627    201.207496  5  5    101       
PG28  23374.035595  10115.490778   7568.863461    331.395615  5  4  7  61       
PG29  -3154.946100 -25105.952667  -7975.084433   -558.042318  9  8  7 102       
PG30   9169.556722  13514.032798  21001.564483   -537.235509  4  6  7 102       
PG31 -16219.527359  -3280.822980 -21007.428497   -196.103594  7  7  5 111       
PG32 -15673.016075 -19553.024288  -8945.888590   -257.105802  6  6  5 109       
*  2022 10  8 16 15  0.00000000
PG01 -13831.299496  22437.721049  -1180.681722    270.805095  3  8  6  66       
PG02  14038.503710 -22415.750603  -2745.204143   -643.167782  9 10  6  59       
PG03 -14535.232414  12078.654966 -18743.341752   -362.126498  3  7  7  85       
PG04  -4859.348893  18903.958186 -17966.212123   -106.781954  6  8  6  99       
PG05  23669.591920  -6878.358221   9874.177133    -99.630223  1  9  6 101       
PG06  13337.047700   6147.011465 -22071.272695    485.274225  5  5  3 109       
PG07  -1928.869288  22176.040655  14528.708176    300.670512  5  6  6  89       
PG08 -11737.332585   9914.545873  21594.765737    -87.962716  6  5  3  72       
PG09   5480.375807  24166.951457  -9582.575078   -285.930051  5  5  6 107       
PG10 -18199.789898 -11525.468836  15892.011130     -6.657357  4  6  5 102       
PG11  18874.564770  -4938.948474 -18003.471145    -23.656417  8  7  7 110       
PG12  15479.785111 -11182.421052 -18683.579694   -289.891457  2  7  5  86       
PG13  15395.956274   -741.292640  21480.113351    402.294158  6  6  5  97       
PG14  15988.840494  13204.403853  16667.250180    -97.032161  5  6  6 107       
PG15  10793.477190 -11620.057670  20838.634801    -22.579889  6  8  4 111       
PG16 -26381.554820   -418.040148   4463.176971   -525.894865  4  8  4  94       
PG17  12788.136533  22890.183215  -3568.500996    666.802099  6  5  5  89       
PG18   1742.357663 -21530.030995  15356.984002     21.722770  6  7  7  94       
PG19  16359.855020  16040.978797 -13888.837420    221.118141  6  3  6  82       
PG20  26158.234772   -346.990655  -3795.565665    480.014806  4  6  7 107       
PG21 -16826.325806  18107.419575   9240.916761    158.327828  5  5  7  89       
PG22 -16992.215008 -13568.761076 -14952.569405    342.013075  6  5  4 109       
PG23  -7439.214329 -14492.643705  20993.040918     -0.861225  5  6  4  84       
PG24  14381.610850 -21717.214375   3537.610039    107.401953  7 11 10 115       
PG25   2573.952907 -15344.579686 -21801.064613    380.288029  5  7  4 126       
PG26 -25751.379109  -4011.132580  -6030.841881    231.685099  4  8  6  72       
PG27 -17071.556982  -3100.092240  20005.787752    201.202152  5  5     93       
PG28  22389.655305  10177.700486  10202.880115    331.391715  5  4  7  84       
PG29  -2595.805753 -24188.698412 -10601.391387   -558.045144  9  8  7  99       
PG30   7735.738916  15384.569088  20252.723627   -537.235470  4  7  7  86       
PG31 -14847.207977  -5251.568885 -21576.814643   -196.104651  7  8  4 102       
PG32 -15852.540715 -20450.686763  -6286.586996   -257.116425  6  6  5 111       
EOF
